GPS BIIF-8  (PRN 03)    
1 40294U 14068A   26092.14234802 -.00000095  00000+0  00000+0 0  9994
2 40294  56.9389  33.8848 0064145  68.3268 292.3345  2.00571597 83687
COSMOS 2501 (702K)      
1 40315U 14075A   26084.30325579  .00000001  00000+0  00000+0 0  9993
2 40315  63.6158 193.2737 0021182 207.3153 152.5805  2.13101287 88064
GPS BIIF-9  (PRN 26)    
1 40534U 15013A   26093.27238504 -.00000004  00000+0  00000+0 0  9990
2 40534  53.1795 207.2753 0108801  39.9221 320.8618  2.00555892 80325
GSAT0203 (GALILEO 7)    
1 40544U 15017A   26093.13014306 -.00000097  00000+0  00000+0 0  9994
2 40544  56.8113 343.6436 0004510 297.6250  62.3753  1.70476014 67923
GSAT0204 (GALILEO 8)    
1 40545U 15017B   26092.79921195 -.00000097  00000+0  00000+0 0  9999
2 40545  56.8170 343.6709 0003556 289.6903  70.3171  1.70475783 30964
BEIDOU-3S IGSO-1S (C31) 
1 40549U 15019A   26082.29086919 -.00000163  00000+0  00000+0 0  9999
2 40549  49.3559 296.4949 0036261 190.1236 255.1180  1.00268843 40213
GPS BIIF-10 (PRN 08)    
1 40730U 15033A   26093.43233353 -.00000031  00000+0  00000+0 0  9995
2 40730  54.0424 270.1663 0114935  29.5641 331.0520  2.00560127 78495
BEIDOU-3S M2S (C58)     
1 40748U 15037A   26093.15041282 -.00000064  00000+0  00000+0 0  9991
2 40748  54.9367 304.6291 0007933 276.5458  83.3899  1.86232003 72726
BEIDOU-3S M1S (C57)     
1 40749U 15037B   26092.83012273 -.00000064  00000+0  00000+0 0  9994
2 40749  54.9337 304.6286 0004681  43.1716 316.8924  1.86254951 72729
GSAT0205 (GALILEO 9)    
1 40889U 15045A   26092.93447196 -.00000016  00000+0  00000+0 0  9992
2 40889  54.9709 223.7776 0004084 270.5301  89.3690  1.67410870 65700
GSAT0206 (GALILEO 10)   
1 40890U 15045B   26093.37447767 -.00000013  00000+0  00000+0 0  9994
2 40890  54.9697 223.6683 0002814  47.1384 312.8358  1.70473950 65765
BEIDOU-3S IGSO-2S (C56) 
1 40938U 15053A   26093.41122830 -.00000150  00000+0  00000+0 0  9994
2 40938  49.3425 259.6668 0062421 189.8099 347.0950  1.00277688 38608
GPS BIIF-11 (PRN 10)    
1 41019U 15062A   26093.49069272 -.00000091  00000+0  00000+0 0  9997
2 41019  56.9127  33.6891 0111291 231.5972 127.3862  2.00567162 76338
GSAT-15 (GAGAN/PRN 139) 
1 41028U 15065A   26093.83825568 -.00000259  00000+0  00000+0 0  9992
2 41028   0.0195 232.1856 0002560 176.3932 178.8352  1.00270351 38052
GSAT0209 (GALILEO 12)   
1 41174U 15079A   26092.95596920  .00000032  00000+0  00000+0 0  9996
2 41174  55.7797 103.3236 0005514 325.8217  34.1781  1.70474345 63491
GSAT0208 (GALILEO 11)   
1 41175U 15079B   26093.17621360  .00000031  00000+0  00000+0 0  9998
2 41175  55.7782 103.3145 0004974 327.5574  32.4460  1.70474211 63913
IRNSS-1E                
1 41241U 16003A   26093.84163569 -.00000292  00000+0  00000+0 0  9996
2 41241  33.0761  60.8193 0016936 186.3109 359.8382  1.00272243 37339
GPS BIIF-12 (PRN 32)    
1 41328U 16007A   26093.07876939  .00000008  00000+0  00000+0 0  9997
2 41328  55.4762  92.4356 0095963 246.7034 112.2988  2.00555387 74339
COSMOS 2514 (751)       
1 41330U 16008A   26091.32659271 -.00000037  00000+0  00000+0 0  9998
2 41330  65.0661 315.6458 0009038 202.4041 157.6117  2.13102702 78980
IRNSS-1F                
1 41384U 16015A   26093.75475572  .00000159  00000+0  00000+0 0  9998
2 41384   5.1607  98.5128 0017932 187.8871 209.8408  1.00274571 36924
BEIDOU-2 IGSO-6 (C13)   
1 41434U 16021A   26092.81344461 -.00000170  00000+0  00000+0 0  9993
2 41434  60.1276  38.7875 0058842 233.3821 307.4549  1.00273243 36729
IRNSS-1G                
1 41469U 16027A   26093.84536237 -.00000333  00000+0  00000+0 0  9996
2 41469   5.0114  99.2409 0005814 331.1718 195.6192  1.00271035 36430
GSAT0211 (GALILEO 14)   
1 41549U 16030A   26093.30022921 -.00000013  00000+0  00000+0 0  9995
2 41549  55.1198 223.7527 0002895  14.9392 345.0192  1.70474106 61397
GSAT0210 (GALILEO 13)   
1 41550U 16030B   26092.97091301 -.00000015  00000+0  00000+0 0  9999
2 41550  55.1194 223.7598 0002002 214.7034 145.2314  1.70474083 61385
BEIDOU-2 G7 (C03)       
1 41586U 16037A   26093.86657567 -.00000354  00000+0  00000+0 0  9992
2 41586   1.5373  68.5609 0007305 348.1304 197.9005  1.00278393  6142
EUTELSAT 117 WEST B (W*)
1 41589U 16038B   26093.58264576 -.00000014  00000+0  00000+0 0  9992
2 41589   0.0208  49.6134 0000285 221.6003  13.4645  1.00272519 35913
GSAT0207 (GALILEO 15)   
1 41859U 16069A   26093.24922366  .00000030  00000+0  00000+0 0  9994
2 41859  55.4504 103.1579 0005781 313.2719  46.7132  1.70474272 58128
GSAT0212 (GALILEO 16)   
1 41860U 16069B   26092.51616299  .00000032  00000+0  00000+0 0  9992
2 41860  55.4472 103.1733 0004355 336.7250  23.2930  1.70474473 58367
GSAT0213 (GALILEO 17)   
1 41861U 16069C   26088.19090007  .00000042  00000+0  00000+0 0  9996
2 41861  55.4467 103.3008 0005672 296.7743  63.2211  1.70475393 58159
GSAT0214 (GALILEO 18)   
1 41862U 16069D   26093.61621133  .00000029  00000+0  00000+0 0  9995
2 41862  55.4485 103.1435 0004834 302.8522  57.1324  1.70474609 58375
SES-15 (WAAS/PRN 133)   
1 42709U 17026A   26093.64002528  .00000058  00000+0  00000+0 0  9996
2 42709   0.0340 327.2328 0000758  49.7417 276.2283  1.00269959  6681
QZS-2 (QZSS/PRN 194)    
1 42738U 17028A   26093.28308766 -.00000218  00000+0  00000+0 0  9992
2 42738  39.5466 244.2448 0742295 270.5974 278.6523  1.00254002  6878
QZS-3 (QZSS/PRN 199)    
1 42917U 17048A   26093.84484237 -.00000349  00000+0  00000+0 0  9998
2 42917   0.0623 147.3495 0002115 228.5576 247.4429  1.00271823 31519
COSMOS 2522 (752)       
1 42939U 17055A   26087.87961730 -.00000036  00000+0  00000+0 0  9997
2 42939  64.0780 194.6153 0008050 231.2616 128.6626  2.13101664 66262
QZS-4 (QZSS/PRN 195)    
1 42965U 17062A   26093.56063234 -.00000337  00000+0  00000+0 0  9993
2 42965  40.1534 344.4369 0747488 270.4779 279.3726  1.00273009 31059
BEIDOU-3 M1 (C19)       
1 43001U 17069A   26092.95919512 -.00000043  00000+0  00000+0 0  9997
2 43001  56.6289  65.5602 0012522 314.0342  45.8356  1.86231220 57209
BEIDOU-3 M2 (C20)       
1 43002U 17069B   26092.36080163 -.00000041  00000+0  00000+0 0  9992
2 43002  56.6272  65.6158 0010135 333.3240  26.5981  1.86230560 57181
GSAT0215 (GALILEO 19)   
1 43055U 17079A   26091.75991171 -.00000022  00000+0  00000+0 0  9992
2 43055  55.0988 223.6078 0000683 280.4205  79.5131  1.70474724 51682
GSAT0216 (GALILEO 20)   
1 43056U 17079B   26092.05111583 -.00000021  00000+0  00000+0 0  9997
2 43056  55.0986 223.5998 0002051 297.7683  62.1536  1.70474829 51709
GSAT0217 (GALILEO 21)   
1 43057U 17079C   26093.44505715 -.00000012  00000+0  00000+0 0  9996
2 43057  55.0972 223.5593 0001868 329.4694  30.4709  1.70474755 51715
GSAT0218 (GALILEO 22)   
1 43058U 17079D   26092.49193683 -.00000018  00000+0  00000+0 0  9994
2 43058  55.0976 223.5832 0002467 285.5719  74.3460  1.70474722 51728
BEIDOU-3 M7 (C27)       
1 43107U 18003A   26092.63934671 -.00000065  00000+0  00000+0 0  9995
2 43107  54.3956 304.9489 0005115  76.5007 283.5840  1.86232359 55945
BEIDOU-3 M8 (C28)       
1 43108U 18003B   26092.58514063 -.00000065  00000+0  00000+0 0  9999
2 43108  54.3877 304.9330 0002485 292.7810  67.2205  1.86230868 55950
BEIDOU-3 M4 (C22)       
1 43207U 18018A   26093.02746557 -.00000043  00000+0  00000+0 0  9996
2 43207  56.5879  65.6246 0007534 355.4518   4.5142  1.86231194 55345
BEIDOU-3 M3 (C21)       
1 43208U 18018B   26093.09390907 -.00000043  00000+0  00000+0 0  9998
2 43208  56.5874  65.6263 0010182 324.6515  35.2538  1.86231146 55345
BEIDOU-3 M9 (C29)       
1 43245U 18029A   26093.84830561 -.00000062  00000+0  00000+0 0  9990
2 43245  54.2613 302.5478 0001013  54.6970 305.3327  1.86228380 54512
BEIDOU-3 M10 (C30)      
1 43246U 18029B   26093.78304414 -.00000063  00000+0  00000+0 0  9998
2 43246  54.2588 302.5771 0005118  31.2975 328.7534  1.86229032 54497
IRNSS-1I                
1 43286U 18035A   26090.55034058  .00000093  00000+0  00000+0 0  9997
2 43286  28.9964  75.3909 0018443 189.9022 176.8923  1.00277465 29309
COSMOS 2527 (756)       
1 43508U 18053A   26092.06425913  .00000004  00000+0  00000+0 0  9998
2 43508  65.5364  76.4450 0009227 248.1546 111.7386  2.13101972 60657
BEIDOU-2 IGSO-7 (C16)   
1 43539U 18057A   26086.63100478 -.00000168  00000+0  00000+0 0  9990
2 43539  55.1838 163.7722 0101772 237.2605 124.1194  1.00275701 28316
GSAT0221 (GALILEO 25)   
1 43564U 18060A   26090.04924982 -.00000099  00000+0  00000+0 0  9999
2 43564  57.1934 343.8925 0004721 315.0021  45.0002  1.70475638 47837
GSAT0222 (GALILEO 26)   
1 43565U 18060B   26093.20172289 -.00000096  00000+0  00000+0 0  9993
2 43565  57.1971 343.8104 0002935 285.5245  74.4895  1.70475247 47935
GSAT0219 (GALILEO 23)   
1 43566U 18060C   26093.42271804 -.00000096  00000+0  00000+0 0  9991
2 43566  57.1958 343.8063 0004127 326.5854  33.4353  1.70475597 47912
GSAT0220 (GALILEO 24)   
1 43567U 18060D   26092.47048715 -.00000097  00000+0  00000+0 0  9990
2 43567  57.1953 343.8319 0004601 318.6748  41.3360  1.70475758 47884
BEIDOU-3 M5 (C23)       
1 43581U 18062A   26092.39635532  .00000008  00000+0  00000+0 0  9999
2 43581  54.0850 184.8810 0003510 295.8623  64.1328  1.86224644 52221
BEIDOU-3 M6 (C24)       
1 43582U 18062B   26093.33335537  .00000014  00000+0  00000+0 0  9994
2 43582  54.0846 184.8383 0005216  31.2890 328.7793  1.86227743 52245
BEIDOU-3 M12 (C26)      
1 43602U 18067A   26089.51302426 -.00000026  00000+0  00000+0 0  9992
2 43602  54.1801 183.7084 0008139  37.0616 323.0089  1.86227710 51657
BEIDOU-3 M11 (C25)      
1 43603U 18067B   26093.40660892  .00000015  00000+0  00000+0 0  9997
2 43603  54.1769 183.5400 0004642  26.6069 333.4575  1.86227234 51759
